ID,Name,Address,Entrance,Phone_Number_1,Phone_Number_2,Nearby_Attractions,Features,Half_Hour,One_Hour,Two_Hours,Ten_Hours,24Hours,Early_Bird,Operation_Hours,Image,Latitude,Longitude
1,COLUMBUS CIRCLE PARKING LLC,"330 West 58th Street, New York, NY, 10019",330 West 58th Street,(212) 245-9634,(212) 582-4008,"Hudson Hotel,Per Se,Shops at Columbus Circle,Columbus Circle,Lincoln Center Jazz ,Museum of Arts and Design,Marea,Jean Georges,Da Vinci Hotel,Fordham University","Service Type: ValetType: RampLocated: IndoorsVehicle Type: Cars, Minivans",$15.00 ,$40.00 ,$45.00 ,$55.00 ,$65.00 ,$21.00 ,24/7,http://www.iconparkingsystems.com/uploaded_files/facility/images/i_150.jpg,40.767713,-73.983647
2,EFFECTIVE PARKING LLC,"435 West 57th Street, New York, NY, 10019",435 West 57th Street,(212) 664-8520,(212) 664-8849,"Hudson Hotel,Museum of Arts and Design,Fordham University,Per Se,Shops at Columbus Circle,The Berenstain Bears Live! ,AMDA,Lincoln Center Jazz ,Rosa Mexicano 62nd St,Columbus Circle","Service Type: ValetType: RampLocated: IndoorsVehicle Type: Motorcycles, Cars, Minivans",N/A,$35.00 ,$40.00 ,$45.00 ,$60.00 ,N/A,24/7,http://www.iconparkingsystems.com/uploaded_files/facility/images/i_76.jpg,40.768789,-73.987137
3,APEX PARKING LLC.,"440 West 57th Street, New York, NY, 10019",440 West 57th Street,(212) 765-7069,(212) 581-8100,"Hudson Hotel,Museum of Arts and Design,Fordham University,Per Se,Shops at Columbus Circle,The Berenstain Bears Live! ,AMDA,St. Clare's,Lincoln Center Jazz ,Columbus Circle","Service Type: ValetType: RampLocated: IndoorsVehicle Type: Vans, Cars, Minivans",$16.00 ,$35.00 ,$40.00 ,$45.00 ,$60.00 ,$20.00 ,24/7,http://www.iconparkingsystems.com/uploaded_files/facility/images/i_48.jpg,40.768266,-73.987415
4,1350 SIXTH PARKING LLC,"1350 Sixth Avenue, New York, NY, 10019","47 West 54th St, 62 W 55th Street, South Side, b/t 5th & 6th Avenue",(212) 582-4294,(212) 765-9715,"Benoit,Mus. of Arts & Design,Uncle Jacks Midtown ,Lorna Luft,Micky Donenz,21 Club,TV & Radio,Modern Art,Henri Bendel ,Ben Benson's","Service Type: ValetType: RampLocated: IndoorsVehicle Type: Cars, Minivans",$17.00 ,$40.00 ,$50.00 ,$60.00 ,$70.00 ,$27.00 ,24/7,http://www.iconparkingsystems.com/uploaded_files/facility/images/i_148.jpg,40.762517,-73.977761
5,COMMAND PARKING LLC.,"1700 Broadway Street, New York, NY, 10019",216 West 54th Street,(212) 664-9042,(212) 664-8526,"Broadway Theatre,Fiddler on the Roof,Sheraton Hotel & Towers,Therese Raquin,She Loves Me,An Act of God,Emma Hunton,Novotel Times Square,Neil Simon Theatre,Jersey Boys","Service Type: ValetType: RampLocated: IndoorsVehicle Type: Motorcycles, Cars, Minivans",$13.00 ,$35.00 ,$45.00 ,$55.00 ,$65.00 ,$22.00 ,24/7,http://www.iconparkingsystems.com/uploaded_files/facility/images/i_63.jpg,40.763517,-73.982302
6,1330 SIXTH PARKING LLC,"57-59 West 53rd Street, New York, NY, 10019","57-59 West 53rd Street or 54th Street, b/t 5th & 6th Avenue",(212) 586-0169,(212) 582-5417,"Mus. of Arts & Design,21 Club,Benoit,TV & Radio,Lorna Luft,Micky Donenz,Ben Benson's,Modern Art,Anthropologie,Uncle Jacks Midtown","Service Type: ValetType: RampLocated: IndoorsVehicle Type: Cars, Minivans",$16.00 ,$40.00 ,$50.00 ,$60.00 ,$70.00 ,$26.00 ,24/7,http://www.iconparkingsystems.com/uploaded_files/facility/images/i_147.jpg,40.76122,-73.977698
7,815 TENTH PARKING LLC,"815 Tenth Avenue, New York, NY, 10019",511 West 54th Street,(646) 414-4586,(646) 414-4587,"St. Clare's,The Berenstain Bears Live! ,Hudson Hotel,Museum of Arts and Design,Fordham University,Clinton the Musical,Churchill,AMDA,Avenue Q,Gazillion Bubble Show","Service Type: ValetType: RampLocated: IndoorsVehicle Type: Cars",$15.00 ,$30.00 ,$35.00 ,$40.00 ,$50.00 ,N/A,24/7,http://www.iconparkingsystems.com/uploaded_files/facility/images/i_177.jpg,40.767588,-73.990066
8,REALITY PARKING LLC,"900 Eighth Avenue, New York, NY, 10019",281 West 53rd Street or 280 West 54th Street,(212) 956-2856,(212) 956-2867,"Therese Raquin,She Loves Me,An Act of God,Emma Hunton,Jersey Boys,August Wilson Theatre,Neil Simon Theatre,The Illusionists,Hampton Inn Manhattan Times Square ,Fiddler on the Roof","Service Type: ValetType: ElevatorLocated: IndoorsVehicle Type: Cars, Minivans",$13.00 ,$35.00 ,$45.00 ,$55.00 ,$65.00 ,$20.00 ,24/7,http://www.iconparkingsystems.com/uploaded_files/facility/images/i_164.jpg,40.764334,-73.984149
9,MODERN PARKING LLC,"666 Fifth Avenue, New York, NY, 10103",20 West 53rd Street,(212) 581-1154,(212) 307-1737,"Mus. of Arts & Design,21 Club,TV & Radio,Lorna Luft,Micky Donenz,Modern Art,Anthropologie,Benoit,Brasserie Ruhlmann ,La Grenouille","Service Type: ValetType: ElevatorLocated: IndoorsVehicle Type: Cars, Minivans",$20.00 ,$45.00 ,$55.00 ,$65.00 ,$75.00 ,$30.00 ,"SUN-THU 7am-12amFRI-SAT 7am-2am",http://www.iconparkingsystems.com/uploaded_files/facility/images/i_176.jpg,40.760385,-73.976674
10,PARK-SERV LLC,"140-166 West 53rd Street, New York, NY, 10019","140 West 53rd Street, 139 West 52nd Street",(212) 397-9028,(212) 581-1000,"Ben Benson's,Sheraton Hotel & Towers,Bar Americain,New York City Center,Le Bernardin,Ruth's Chris Steak House,Capital Grille 51st ,Broadway Theatre,Fiddler on the Roof,Of Good Stock","Service Type: ValetType: ElevatorLocated: IndoorsVehicle Type: Cars, Minivans",$15.00 ,$40.00 ,$45.00 ,$55.00 ,$65.00 ,$25.00 ,24/7,http://www.iconparkingsystems.com/uploaded_files/facility/images/i_107.jpg,40.76241,-73.981011
11,MATINEE 52 LLC,"810 7th Avenue, New York, NY, 10019","207 West 52nd Street, 1676 Broadway",(212) 247-4372,,"Novotel Times Square,Fiddler on the Roof,Sheraton Hotel & Towers,Broadway Theatre,School of Rock - The Musical,Wicked ,Gershwin Theatre,Bar Americain,Le Bernardin,Mamma Mia","Service Type: ValetType: RampLocated: IndoorsVehicle Type: Cars",$15.00 ,$35.00 ,$50.00 ,$55.00 ,$65.00 ,$21.00 ,24/7,http://www.iconparkingsystems.com/uploaded_files/facility/images/i_229.jpg,40.762838,-73.982465
12,CIRCLE PARKING LLC,"200-206 West 52nd Street, New York, NY, 10019","209 West 51st Street, 206 West 52nd Street",(212) 397-9029,(212) 581-3300,"School of Rock - The Musical,Mamma Mia,Winter Garden Theatre,Wicked ,Gershwin Theatre,Le Bernardin,Bar Americain,Circle in the Square,Ruth's Chris Steak House,Novotel Times Square","Service Type: ValetType: ElevatorLocated: IndoorsVehicle Type: Cars, Minivans",$14.00 ,$35.00 ,$45.00 ,$55.00 ,$65.00 ,$20.00 ,24/7,http://www.iconparkingsystems.com/uploaded_files/facility/images/i_58.jpg,40.762387,-73.982769
13,CLINTON 53 PARKING LLC,"515 West 52nd Street, New York, NY, 10019",504 West 53rd Street,(212) 956-3218,,"St. Clare's,Clinton the Musical,Churchill,Avenue Q,Gazillion Bubble Show,New World Stages,Pietrasanta Restaurant,Hudson Hotel,A Queen for a Day,The Berenstain Bears Live!","Service Type: ValetType: RampLocated: IndoorsVehicle Type: Cars, Minivans",$15.00 ,$30.00 ,$35.00 ,$40.00 ,$50.00 ,$22.00 ,24/7,http://www.iconparkingsystems.com/uploaded_files/facility/images/i_196.jpg,40.766562,-73.991692
14,HUDSON VIEW GARAGE LLC,"747 Tenth Avenue, New York, NY, 10019",520 West 51st Street,(212) 974-9608,(212) 245-7888,"St. Clare's,Pietrasanta Restaurant,A Queen for a Day,Clinton the Musical,Churchill,Avenue Q,Gazillion Bubble Show,New World Stages,Black Angels Over Tuskegee,Diamond District","Service Type: ValetType: RampLocated: IndoorsVehicle Type: Cars, Minivans",,$20.00 ,$35.00 ,$40.00 ,$50.00 ,$20.00 ,24/7,http://www.iconparkingsystems.com/uploaded_files/facility/images/i_89.jpg,40.7652,-73.991981
15,HJ PARKING LLC,"851 Eighth Avenue, New York, NY, 10019",851-859 8th Avenue,(212) 581-8490,(212) 581-4100,"Hampton Inn Manhattan Times Square ,Broadway Parking,The Illusionists,The Palm 50th Street,Jersey Boys,August Wilson Theatre,Neil Simon Theatre,Fun Home,Avenue Q,Gazillion Bubble Show","Service Type: ValetType: ElevatorLocated: IndoorsVehicle Type: Vans, Cars",$14.00 ,$30.00 ,$40.00 ,$50.00 ,$65.00 ,$20.00 ,24/7,http://www.iconparkingsystems.com/uploaded_files/facility/images/i_140.jpg,40.763428,-73.98595
16,THEATER 50 PARKING LLC,"307 West 50th Street, New York, NY, 10019",307 West 50th Street,(212) 307-0650,(212) 757-4151,"Broadway Parking,Avenue Q,Gazillion Bubble Show,New World Stages,The Palm 50th Street,Clinton the Musical,Churchill,Hampton Inn Manhattan Times Square ,Hilton Garden Inn Times Square ,Mayfair New York Hotel","Service Type: ValetType: RampLocated: IndoorsVehicle Type: Cars",$14.00 ,$30.00 ,$40.00 ,$50.00 ,$65.00 ,$20.00 ,24/7,http://www.iconparkingsystems.com/uploaded_files/facility/images/i_222.jpg,40.762684,-73.986628
17,MERCURY PARKING LLC,"350 West 50th Street, New York, NY, 10019",350 West 50th Street or 335 West 49th Street,(212) 265-5035,,"Clinton the Musical,Churchill,Avenue Q,Gazillion Bubble Show,New World Stages,Broadway Parking,Hampton Inn Manhattan Times Square ,St. Clare's,The Palm 50th Street,Sombrero Restaurant","Service Type: ValetType: RampLocated: IndoorsVehicle Type: Motorcycles, Vans, Cars",$14.00 ,$30.00 ,$40.00 ,$50.00 ,$65.00 ,$20.00 ,24/7,http://www.iconparkingsystems.com/uploaded_files/facility/images/i_207.jpg,40.762895,-73.988075
18,PRIMARY PARKING LLC,"721-735 10th Avenue, New York, NY, 10019",721 10th Avenue,(212) 245-1268,,"St. Clare's,A Queen for a Day,Pietrasanta Restaurant,Clinton the Musical,Churchill,Black Angels Over Tuskegee,Avenue Q,Gazillion Bubble Show,New World Stages,Becco","Service Type: ValetType: RampLocated: IndoorsVehicle Type: Motorcycles, Vans, Cars, Minivans",,$20.00 ,$35.00 ,$45.00 ,$50.00 ,$20.00 ,24/7,http://www.iconparkingsystems.com/uploaded_files/facility/images/i_113.jpg,40.764475,-73.992212
19,MAESTRO PARKING LLC,"888 7th Avenue, New York, NY, 10019",56th Street b/t Broadway & 7th Avenue,(212) 586-3665,,"Carnegie Hall,Da Vinci Hotel,New York City Center,Of Good Stock,Marea,Therese Raquin,She Loves Me,An Act of God,Emma Hunton,Broadway Theatre","Service Type: ValetType: RampLocated: IndoorsVehicle Type: All",,$35.00 ,$45.00 ,$50.00 ,$65.00 ,$26.00 ,24/7,http://www.iconparkingsystems.com/uploaded_files/facility/images/i_8a47f586f04892104f410a34048d51a5maestro1.jpg,40.764989,-73.98046
20,EDISON FASTPARK,"307 West 44th Street, New York, NY, 10019",307 West 44th Street b/t 8th & 9th Avenue,(212) 664-9126,,"Theater District,Times Square,Restaurant Row,Shubert Alley,Port Authority Bus Terminal,Hotels","SUV/oversized vehicle parkingElectric chargingBicycle parking",$8.00 ,$16.00 ,$30.00 ,,$48.00 ,$24.00 ,24/7,http://www.parkfast.com/Styles/Images/Locations/Loc173.jpg,40.758954,-73.98935
21,EDISON FASTPARK,"451 9th Avenue, New York, NY, 10019",451 9th Avenue b/t 35th & 36th Street,(212) 502-4885,,"Madison Square Garden,Theater District,Midtown Hotels,Penn Station,Port Authority","SUV/oversized vehicle parkingElectric chargingBicycle parking",$10.00 ,$17.00 ,$20.00 ,,$42.00 ,$24.00 ,24/7,http://www.parkfast.com/Styles/Images/Locations/Loc250.jpg,40.754509,-73.995944
22,EDISON FASTPARK,"332 West 44th Street, New York, NY, 10019",332 West 44th Street b/t 8th & 9th Avenue,(212) 757-8375,,"Theater District,Times Square,Restaurant Row,Shubert Alley,Port Authority Bus Terminal,Hotels","SUV/oversized vehicle parkingBicycle parking",,$20.00 ,,,$48.00 ,$24.00 ,24/7,http://www.parkfast.com/Styles/Images/Locations/Loc174.jpg,40.759039,-73.990526
23,CENTRAL PARKING @ CBS BUILDING,"40 West 53rd Street, New York, NY, 10019",31 West 52nd Street,(800) 836-6666,,"Blakely New York Hotel,75 Rockefeller Plaza,MoMA","Service Type: ValetLocated: IndoorsVehicle Type: All",,$37.00 ,$47.00 ,$57.00 ,$74.60 ,,24/7,http://nycparking.spplus.com/Manhattan-CBS-Building-31-West-52nd-Street.html,40.761123,-73.978012
24,CENTRAL PARKING,"101 West 53rd Street, New York, NY, 10019",101 West 53rd Street,(800) 836-6666,,"Executive Plaza at Rockefeller Center,New York Hilton Midtown Hotel,Warwick New York Hotel,Dream Midtown Hotel,Michelangelo Hotel NYC","Service Type: ValetLocated: IndoorsVehicle Type: All",$10.00 ,$25.00 ,$28.00 ,$40.00 ,$55.00 ,,24/7,http://nycparking.spplus.com/Manhattan-Hilton-Hotel-101-West-53rd-Street.html,40.761822,-73.978702
25,NYC Parking 311 Corp.,"317 West 50th Street, New York, NY, 10019",West 50th Street b/t 8th and 9th Avenue,(212) 586-9760,(212) 265-6275,"Hampton Inn Manhattan Times Square,Per Se Restaurant,Le Bernardin Restaurant,La Grenouille Restaurant,Gramercy Tavern",Located: Indoors,$6.00 ,$15.00 ,$20.00 ,$27.00 ,$31.00 ,$20.00 ,24/7,http://ipark.com/garages/web18.JPG,40.762808,-73.987253